{"type": "FeatureCollection", "features": [{"type": "Feature", "properties": {"norad_id": 32275, "name": "COSMOS 2433 (720)", "group": "glo-ops", "lat": -21.81609138391783, "lon": 152.261584217264, "alt_km": 19124.804057723315, "timestamp": "2025-12-23T05:02:12.291752+00:00", "meta": {"OBJECT_NAME": "COSMOS 2433 (720)", "OBJECT_ID": "2007-052A", "EPOCH": "2025-12-22T00:07:36.568704", "MEAN_MOTION": 2.13104226, "ECCENTRICITY": 0.00051704, "INCLINATION": 65.6781, "RA_OF_ASC_NODE": 321.8942, "ARG_OF_PERICENTER": 255.846, "MEAN_ANOMALY": 104.0915, "EPHEMERIS_TYPE": 0, "CLASSIFICATION_TYPE": "U", "NORAD_CAT_ID": 32275, "ELEMENT_SET_NO": 999, "REV_AT_EPOCH": 14128, "BSTAR": 0, "MEAN_MOTION_DOT": -4.2e-07, "MEAN_MOTION_DDOT": 0}, "tle": {"line1": "1 32275U 07052A   25356.00528436 -.00000042  00000+0  00000+0 0  9997", "line2": "2 32275  65.6781 321.8942 0005170 255.8460 104.0915  2.13104226141283"}}, "geometry": {"type": "Point", "coordinates": [152.261584217264, -21.81609138391783]}}, {"type": "Feature", "properties": {"norad_id": 32276, "name": "COSMOS 2432 (719)", "group": "glo-ops", "lat": 28.422704561635733, "lon": 127.81253281693226, "alt_km": 19154.692726479287, "timestamp": "2025-12-23T05:02:12.291775+00:00", "meta": {"OBJECT_NAME": "COSMOS 2432 (719)", "OBJECT_ID": "2007-052B", "EPOCH": "2025-12-22T03:59:43.764000", "MEAN_MOTION": 2.13103428, "ECCENTRICITY": 0.00113428, "INCLINATION": 65.6941, "RA_OF_ASC_NODE": 322.0132, "ARG_OF_PERICENTER": 314.3945, "MEAN_ANOMALY": 113.6439, "EPHEMERIS_TYPE": 0, "CLASSIFICATION_TYPE": "U", "NORAD_CAT_ID": 32276, "ELEMENT_SET_NO": 999, "REV_AT_EPOCH": 14131, "BSTAR": 0, "MEAN_MOTION_DOT": -4.2e-07, "MEAN_MOTION_DDOT": 0}, "tle": {"line1": "1 32276U 07052B   25356.16647875 -.00000042  00000+0  00000+0 0  9994", "line2": "2 32276  65.6941 322.0132 0011342 314.3945 113.6439  2.13103428141317"}}, "geometry": {"type": "Point", "coordinates": [127.81253281693226, 28.422704561635733]}}, {"type": "Feature", "properties": {"norad_id": 32393, "name": "COSMOS 2434 (721)", "group": "glo-ops", "lat": 63.90213804160178, "lon": -61.56206773839324, "alt_km": 19111.687223538916, "timestamp": "2025-12-23T05:02:12.291790+00:00", "meta": {"OBJECT_NAME": "COSMOS 2434 (721)", "OBJECT_ID": "2007-065A", "EPOCH": "2025-12-22T08:26:32.754336", "MEAN_MOTION": 2.13101487, "ECCENTRICITY": 0.00048131, "INCLINATION": 64.3157, "RA_OF_ASC_NODE": 197.8788, "ARG_OF_PERICENTER": 72.4714, "MEAN_ANOMALY": 83.8697, "EPHEMERIS_TYPE": 0, "CLASSIFICATION_TYPE": "U", "NORAD_CAT_ID": 32393, "ELEMENT_SET_NO": 999, "REV_AT_EPOCH": 14000, "BSTAR": 0, "MEAN_MOTION_DOT": 9.5e-07, "MEAN_MOTION_DDOT": 0}, "tle": {"line1": "1 32393U 07065A   25356.35176799  .00000095  00000+0  00000+0 0  9998", "line2": "2 32393  64.3157 197.8788 0004813  72.4714  83.8697  2.13101487140000"}}, "geometry": {"type": "Point", "coordinates": [-61.56206773839324, 63.90213804160178]}}, {"type": "Feature", "properties": {"norad_id": 32395, "name": "COSMOS 2436 (723)", "group": "glo-ops", "lat": -41.66350362470103, "lon": 43.28449958169254, "alt_km": 19171.2978704434, "timestamp": "2025-12-23T05:02:12.291803+00:00", "meta": {"OBJECT_NAME": "COSMOS 2436 (723)", "OBJECT_ID": "2007-065C", "EPOCH": "2025-12-22T05:06:38.797056", "MEAN_MOTION": 2.13100243, "ECCENTRICITY": 0.00178088, "INCLINATION": 64.3245, "RA_OF_ASC_NODE": 197.9539, "ARG_OF_PERICENTER": 10.2103, "MEAN_ANOMALY": 172.6703, "EPHEMERIS_TYPE": 0, "CLASSIFICATION_TYPE": "U", "NORAD_CAT_ID": 32395, "ELEMENT_SET_NO": 999, "REV_AT_EPOCH": 13995, "BSTAR": 0, "MEAN_MOTION_DOT": 9.5e-07, "MEAN_MOTION_DDOT": 0}, "tle": {"line1": "1 32395U 07065C   25356.21294904  .00000095  00000+0  00000+0 0  9994", "line2": "2 32395  64.3245 197.9539 0017808  10.2103 172.6703  2.13100243139951"}}, "geometry": {"type": "Point", "coordinates": [43.28449958169254, -41.66350362470103]}}, {"type": "Feature", "properties": {"norad_id": 36111, "name": "COSMOS 2456 (730)", "group": "glo-ops", "lat": -59.33674823410216, "lon": -50.90028279230971, "alt_km": 19129.431854086768, "timestamp": "2025-12-23T05:02:12.291816+00:00", "meta": {"OBJECT_NAME": "COSMOS 2456 (730)", "OBJECT_ID": "2009-070A", "EPOCH": "2025-12-22T12:57:22.117248", "MEAN_MOTION": 2.13103796, "ECCENTRICITY": 0.00035899, "INCLINATION": 64.905, "RA_OF_ASC_NODE": 77.0029, "ARG_OF_PERICENTER": 294.9514, "MEAN_ANOMALY": 162.8071, "EPHEMERIS_TYPE": 0, "CLASSIFICATION_TYPE": "U", "NORAD_CAT_ID": 36111, "ELEMENT_SET_NO": 999, "REV_AT_EPOCH": 12466, "BSTAR": 0, "MEAN_MOTION_DOT": -4e-08, "MEAN_MOTION_DDOT": 0}, "tle": {"line1": "1 36111U 09070A   25356.53983932 -.00000004  00000+0  00000+0 0  9994", "line2": "2 36111  64.9050  77.0029 0003589 294.9514 162.8071  2.13103796124668"}}, "geometry": {"type": "Point", "coordinates": [-50.90028279230971, -59.33674823410216]}}, {"type": "Feature", "properties": {"norad_id": 36112, "name": "COSMOS 2457 (733)", "group": "glo-ops", "lat": 18.7137830787539, "lon": 85.96729267741125, "alt_km": 19137.11464155953, "timestamp": "2025-12-23T05:02:12.291828+00:00", "meta": {"OBJECT_NAME": "COSMOS 2457 (733)", "OBJECT_ID": "2009-070B", "EPOCH": "2025-12-22T17:02:17.171808", "MEAN_MOTION": 2.13101138, "ECCENTRICITY": 0.00045164, "INCLINATION": 64.8907, "RA_OF_ASC_NODE": 76.8445, "ARG_OF_PERICENTER": 162.819, "MEAN_ANOMALY": 194.4709, "EPHEMERIS_TYPE": 0, "CLASSIFICATION_TYPE": "U", "NORAD_CAT_ID": 36112, "ELEMENT_SET_NO": 999, "REV_AT_EPOCH": 12466, "BSTAR": 0, "MEAN_MOTION_DOT": -3e-08, "MEAN_MOTION_DDOT": 0}, "tle": {"line1": "1 36112U 09070B   25356.70992097 -.00000003  00000+0  00000+0 0  9995", "line2": "2 36112  64.8907  76.8445 0004516 162.8190 194.4709  2.13101138124669"}}, "geometry": {"type": "Point", "coordinates": [85.96729267741125, 18.7137830787539]}}, {"type": "Feature", "properties": {"norad_id": 36402, "name": "COSMOS 2460 (732)", "group": "glo-ops", "lat": 18.59105274612167, "lon": -30.789172743545922, "alt_km": 19128.39226390824, "timestamp": "2025-12-23T05:02:12.291840+00:00", "meta": {"OBJECT_NAME": "COSMOS 2460 (732)", "OBJECT_ID": "2010-007C", "EPOCH": "2025-12-22T12:30:28.820160", "MEAN_MOTION": 2.1310637, "ECCENTRICITY": 0.00025026, "INCLINATION": 65.5243, "RA_OF_ASC_NODE": 320.4432, "ARG_OF_PERICENTER": 283.7046, "MEAN_ANOMALY": 288.4145, "EPHEMERIS_TYPE": 0, "CLASSIFICATION_TYPE": "U", "NORAD_CAT_ID": 36402, "ELEMENT_SET_NO": 999, "REV_AT_EPOCH": 12296, "BSTAR": 0, "MEAN_MOTION_DOT": -3.9e-07, "MEAN_MOTION_DDOT": 0}, "tle": {"line1": "1 36402U 10007C   25356.52116690 -.00000039  00000+0  00000+0 0  9995", "line2": "2 36402  65.5243 320.4432 0002502 283.7046 288.4145  2.13106370122964"}}, "geometry": {"type": "Point", "coordinates": [-30.789172743545922, 18.59105274612167]}}, {"type": "Feature", "properties": {"norad_id": 37867, "name": "COSMOS 2476 (744)", "group": "glo-ops", "lat": 18.204409383370688, "lon": -109.913430322778, "alt_km": 19111.41849647046, "timestamp": "2025-12-23T05:02:12.291851+00:00", "meta": {"OBJECT_NAME": "COSMOS 2476 (744)", "OBJECT_ID": "2011-064A", "EPOCH": "2025-12-19T06:05:26.552256", "MEAN_MOTION": 2.13103916, "ECCENTRICITY": 0.0024321, "INCLINATION": 65.1662, "RA_OF_ASC_NODE": 78.9509, "ARG_OF_PERICENTER": 234.6548, "MEAN_ANOMALY": 130.4776, "EPHEMERIS_TYPE": 0, "CLASSIFICATION_TYPE": "U", "NORAD_CAT_ID": 37867, "ELEMENT_SET_NO": 999, "REV_AT_EPOCH": 10993, "BSTAR": 0, "MEAN_MOTION_DOT": -3e-07, "MEAN_MOTION_DDOT": 0}, "tle": {"line1": "1 37867U 11064A   25353.25377954 -.00000030  00000+0  00000+0 0  9995", "line2": "2 37867  65.1662  78.9509 0024321 234.6548 130.4776  2.13103916109937"}}, "geometry": {"type": "Point", "coordinates": [-109.913430322778, 18.204409383370688]}}, {"type": "Feature", "properties": {"norad_id": 37868, "name": "COSMOS 2477 (745)", "group": "glo-ops", "lat": -16.99987908977335, "lon": 70.78605352753948, "alt_km": 19147.47493305441, "timestamp": "2025-12-23T05:02:12.291863+00:00", "meta": {"OBJECT_NAME": "COSMOS 2477 (745)", "OBJECT_ID": "2011-064B", "EPOCH": "2025-12-22T10:30:41.821056", "MEAN_MOTION": 2.1310305, "ECCENTRICITY": 0.00215605, "INCLINATION": 65.1736, "RA_OF_ASC_NODE": 78.921, "ARG_OF_PERICENTER": 235.3633, "MEAN_ANOMALY": 233.4933, "EPHEMERIS_TYPE": 0, "CLASSIFICATION_TYPE": "U", "NORAD_CAT_ID": 37868, "ELEMENT_SET_NO": 999, "REV_AT_EPOCH": 10999, "BSTAR": 0, "MEAN_MOTION_DOT": -3e-08, "MEAN_MOTION_DDOT": 0}, "tle": {"line1": "1 37868U 11064B   25356.43798404 -.00000003  00000+0  00000+0 0  9996", "line2": "2 37868  65.1736  78.9210 0021560 235.3633 233.4933  2.13103050109998"}}, "geometry": {"type": "Point", "coordinates": [70.78605352753948, -16.99987908977335]}}, {"type": "Feature", "properties": {"norad_id": 37869, "name": "COSMOS 2475 (743)", "group": "glo-ops", "lat": -53.90626982381008, "lon": 39.604268067566615, "alt_km": 19090.379939365124, "timestamp": "2025-12-23T05:02:12.291874+00:00", "meta": {"OBJECT_NAME": "COSMOS 2475 (743)", "OBJECT_ID": "2011-064C", "EPOCH": "2025-12-22T12:35:30.005376", "MEAN_MOTION": 2.13101682, "ECCENTRICITY": 0.00266922, "INCLINATION": 65.1807, "RA_OF_ASC_NODE": 78.9382, "ARG_OF_PERICENTER": 249.0834, "MEAN_ANOMALY": 242.1615, "EPHEMERIS_TYPE": 0, "CLASSIFICATION_TYPE": "U", "NORAD_CAT_ID": 37869, "ELEMENT_SET_NO": 999, "REV_AT_EPOCH": 11000, "BSTAR": 0, "MEAN_MOTION_DOT": -2e-08, "MEAN_MOTION_DDOT": 0}, "tle": {"line1": "1 37869U 11064C   25356.52465284 -.00000002  00000+0  00000+0 0  9993", "line2": "2 37869  65.1807  78.9382 0026692 249.0834 242.1615  2.13101682110001"}}, "geometry": {"type": "Point", "coordinates": [39.604268067566615, -53.90626982381008]}}]}